[{"OBJECT_NAME":"KUIPER-00223","OBJECT_ID":"2026-030V","EPOCH":"2026-03-09T17:18:46.022400","MEAN_MOTION":15.34146211,"ECCENTRICITY":0.00128242,"INCLINATION":51.8827,"RA_OF_ASC_NODE":219.2782,"ARG_OF_PERICENTER":59.0052,"MEAN_ANOMALY":301.2192,"EPHEMERIS_TYPE":0,"CLASSIFICATION_TYPE":"U","NORAD_CAT_ID":67783,"ELEMENT_SET_NO":999,"REV_AT_EPOCH":509,"BSTAR":0.00090645373,"MEAN_MOTION_DOT":0.00030225,"MEAN_MOTION_DDOT":0},{"OBJECT_NAME":"SL-3 DEB","OBJECT_ID":"1983-075F","EPOCH":"2026-03-09T19:42:52.235424","MEAN_MOTION":15.39643406,"ECCENTRICITY":0.00197846,"INCLINATION":97.8048,"RA_OF_ASC_NODE":24.2009,"ARG_OF_PERICENTER":43.7659,"MEAN_ANOMALY":316.5149,"EPHEMERIS_TYPE":0,"CLASSIFICATION_TYPE":"U","NORAD_CAT_ID":14928,"ELEMENT_SET_NO":999,"REV_AT_EPOCH":30350,"BSTAR":0.0003796907,"MEAN_MOTION_DOT":0.00014993,"MEAN_MOTION_DDOT":0}]
